{"type": "FeatureCollection", "features": [ {"type": "Feature", "properties": {"norad_id": 66911, "name": "1998-067XX", "group": "stations", "lat": -51.24201261280875, "lon": -13.776374017457364, "alt_km": 408.4925610507171, "timestamp": "2025-12-24T03:53:28.395570+00:00", "meta": {"OBJECT_NAME": "1998-067XX", "OBJECT_ID": "1998-067XX", "EPOCH": "2025-12-23T12:51:49.426272", "MEAN_MOTION": 15.53470318, "ECCENTRICITY": 0.0003682, "INCLINATION": 51.6308, "RA_OF_ASC_NODE": 88.6344, "ARG_OF_PERICENTER": 272.7322, "MEAN_ANOMALY": 87.3247, "EPHEMERIS_TYPE": 0, "CLASSIFICATION_TYPE": "U", "NORAD_CAT_ID": 66911, "ELEMENT_SET_NO": 999, "REV_AT_EPOCH": 328, "BSTAR": 0.0011146, "MEAN_MOTION_DOT": 0.00072234, "MEAN_MOTION_DDOT": 0}, "tle": {"line1": "1 66911U 98067XX  25357.53598873  .00072234  00000+0  11146-2 0  9995", "line2": "2 66911  51.6308  88.6344 0003682 272.7322  87.3247 15.53470318  3286"}}, "geometry": {"type": "Point", "coordinates": [-13.776374017457364, -51.24201261280875]}}, {"type": "Feature", "properties": {"norad_id": 66912, "name": "1998-067XY", "group": "stations", "lat": -13.061976630920482, "lon": -83.7551307091446, "alt_km": 412.36380008954893, "timestamp": "2025-12-24T03:53:28.395583+00:00", "meta": {"OBJECT_NAME": "1998-067XY", "OBJECT_ID": "1998-067XY", "EPOCH": "2025-12-22T13:57:42.061248", "MEAN_MOTION": 15.52056622, "ECCENTRICITY": 0.00039127, "INCLINATION": 51.6324, "RA_OF_ASC_NODE": 93.5129, "ARG_OF_PERICENTER": 278.0711, "MEAN_ANOMALY": 81.9835, "EPHEMERIS_TYPE": 0, "CLASSIFICATION_TYPE": "U", "NORAD_CAT_ID": 66912, "ELEMENT_SET_NO": 999, "REV_AT_EPOCH": 313, "BSTAR": 0.00086867978, "MEAN_MOTION_DOT": 0.0005325, "MEAN_MOTION_DDOT": 0}, "tle": {"line1": "1 66912U 98067XY  25356.58173682  .00053250  00000+0  86868-3 0  9998", "line2": "2 66912  51.6324  93.5129 0003912 278.0711  81.9835 15.52056622  3132"}}, "geometry": {"type": "Point", "coordinates": [-83.7551307091446, -13.061976630920482]}}]}